22P/Kopff,e,4.7418,120.7557,163.0025,3.440154,0.1544676,0.54945612,59.1341,04/05.0/2023,2000,g  3.0,10.4
# From MPC 14747
23P/Brorsen-Metcalf,e,19.2517,311.9646,129.2215,16.94272,0.0141328,0.97216419,0.0000,08/11.5772/1989,2000,g 10.0,6.0
# From MPC110085
24P/Schaumasse,e,11.5036,78.3252,58.4507,4.055266,0.1206911,0.70773996,238.1253,04/05.0/2023,2000,g  6.5,14.0
# From MPEC 2022-Y15
26P/Grigg-Skjellerup,e,22.4330,211.5410,2.1491,3.015415,0.1882277,0.64052319,310.2402,04/05.0/2023,2000,g 12.0,16.0
# From MPC 78188
27P/Crommelin,e,29.3688,250.6733,195.8549,9.180603,0.0354321,0.91907343,151.3580,04/05.0/2023,2000,g 12.0,8.0
# From MPEC 2023-FK0
28P/Neujmin,e,14.3104,346.3442,347.4670,6.981663,0.0534276,0.77356882,40.2970,04/05.0/2023,2000,g  8.5,6.0
# From MPEC 2023-G31
29P/Schwassmann-Wachmann,e,9.3630,312.3989,51.1949,6.048534,0.0662566,0.04464997,95.5752,04/05.0/2023,2000,g  4.0,4.0
# From MPEC 2023-CD7
30P/Reinmuth,e,8.0580,117.4751,9.4542,3.733319,0.1366348,0.51587454,291.6800,04/05.0/2023,2000,g  9.5,6.0
# From MPEC 2021-F20
31P/Schwassmann-Wachmann,e,4.5485,114.1048,17.8818,4.235078,0.1130868,0.19241424,155.1129,04/05.0/2023,2000,g 13.1,4.0
# From MPEC 2022-K19
32P/ComasSola,e,9.9120,54.5642,54.7492,4.558308,0.1012741,0.55659838,321.3758,04/05.0/2023,2000,g  6.5,8.0
# From MPEC 2013-O31
33P/Daniel,e,22.2939,66.2969,20.4582,4.088456,0.1192244,0.45184322,290.0633,04/05.0/2023,2000,g 10.0,12.0
# From  15, 452
35P/Herschel-Rigollet,e,65.207,356.690,28.993,28.5450,0.006463,0.9744133,0.000,02/16.9015/2092,2000,g  9.0,4.0
# From MPEC 2022-ED3
36P/Whipple,e,9.9527,181.8412,201.0606,4.137521,0.1171099,0.26904938,121.4412,04/05.0/2023,2000,g  8.5,6.0
# From MPEC 2021-F20
37P/Forbes,e,8.9506,314.5660,330.0960,3.461973,0.1530095,0.53301693,275.0425,04/05.0/2023,2000,g 13.8,4.0
# From MPEC 2018-S50
38P/Stephan-Oterma,e,18.3940,77.8958,359.5093,11.23975,0.0261559,0.85950332,41.9790,04/05.0/2023,2000,g  3.5,12.0
# From MPEC 2022-A21
39P/Oterma,e,1.5439,296.7986,101.7230,7.257916,0.0504065,0.21356953,355.4151,04/05.0/2023,2000,g  7.0,6.0
# From MPC100283
40P/Vaisala,e,11.4617,133.6280,47.4966,4.955886,0.0893351,0.63113485,274.7279,04/05.0/2023,2000,g  5.5,12.0
# From MPC105240
41P/Tuttle-Giacobini-Kresak,e,9.2205,140.9883,62.2106,3.087911,0.1816381,0.65989955,36.9808,04/05.0/2023,2000,g 10.0,16.0
# From MPC 94283
42P/Neujmin,e,3.9908,150.1757,147.2210,4.874274,0.0915881,0.58452015,266.9745,04/05.0/2023,2000,g 13.0,6.0
# From MPEC 2022-C56
43P/Wolf-Harrington,e,9.3314,244.0224,224.0697,4.320822,0.1097374,0.43526120,266.2760,04/05.0/2023,2000,g  8.0,6.0
# From MPEC 2023-F81
44P/Reinmuth,e,5.8969,286.4281,58.0356,3.688631,0.1391254,0.42738105,48.2753,04/05.0/2023,2000,g  8.3,6.0
# From MPEC 2022-O01
45P/Honda-Mrkos-Pajdusakova,e,4.3231,87.6892,327.9249,3.055842,0.1845048,0.81767924,63.2887,04/05.0/2023,2000,g 13.5,8.0
# From MPEC 2021-O56
46P/Wirtanen,e,11.7496,82.1625,356.3287,3.091626,0.1813108,0.65875167,285.5698,04/05.0/2023,2000,g 14.0,6.0
# From MPEC 2021-F20
47P/Ashbrook-Jackson,e,13.0398,356.9172,357.7655,4.121668,0.1177862,0.31870184,249.7180,04/05.0/2023,2000,g 12.2,4.0
# From MPEC 2023-FK0
48P/Johnson,e,12.2005,110.0889,216.7462,3.501078,0.1504532,0.42710345,255.0684,04/05.0/2023,2000,g 10.0,6.0
# From MPEC 2021-F20
49P/Arend-Rigaux,e,19.0535,118.7914,332.9220,3.569333,0.1461583,0.59863562,252.3084,04/05.0/2023,2000,g 13.4,4.0
# From MPEC 2015-S97
50P/Arend,e,19.1011,355.1732,49.3554,4.087351,0.1192727,0.52964412,311.8315,04/05.0/2023,2000,g  9.5,6.0
# From MPEC 2022-UE6
51P/Harrington,e,5.4264,83.6615,269.2531,3.706953,0.1380952,0.54342247,25.6483,04/05.0/2023,2000,g 10.0,8.0
# From NK 3014
51P-A/Harrington,e,5.4264,83.6616,269.2245,3.708618,0.1380022,0.54365937,25.2776,04/05.0/2023,2000,g 10.0,8.0
# From MPEC 2022-X67
51P-D/Harrington,e,5.4269,83.6500,269.2712,3.707317,0.1380748,0.54355284,25.5861,04/05.0/2023,2000,g 16.0,8.0
# From MPEC 2022-L66
52P/Harrington-Abell,e,10.2310,336.8248,139.5593,3.863678,0.1297785,0.54032421,70.9618,04/05.0/2023,2000,g 13.5,6.0
# From MPC100283
53P/Van Biesbroeck,e,6.6079,148.8241,134.4898,5.432728,0.0778354,0.55041116,197.1383,04/05.0/2023,2000,g  7.7,4.8
# From MPC 89011
54P/de Vico-Swift-NEAT,e,6.0642,358.8107,1.9005,3.788153,0.1336789,0.42645682,290.7873,04/05.0/2023,2000,g  9.0,4.0
# From MPC 31070
55P/Tempel-Tuttle,e,162.5064,235.4205,172.4742,10.35575,0.0295755,0.90529627,272.1974,04/05.0/2023,2000,g  9.0,4.0
# From MPC101100
56P/Slaughter-Burnham,e,8.1591,345.9766,44.0538,5.065777,0.0864440,0.50853274,211.4908,04/05.0/2023,2000,g  8.5,6.0
# From MPEC 2023-CD7
57P/duToit-Neujmin-Delporte,e,2.8524,188.7771,115.1395,3.443599,0.1542358,0.50083534,82.4912,04/05.0/2023,2000,g 12.5,6.0
# From MPEC 2021-O56
58P/Jackson-Neujmin,e,13.1053,159.0744,200.5461,4.088508,0.1192221,0.66267490,124.2524,04/05.0/2023,2000,g 15.5,6.0
# From MPEC 2023-A50
59P/Kearns-Kwee,e,9.3449,312.7853,127.5271,4.482970,0.1038378,0.47623231,172.3944,04/05.0/2023,2000,g  7.0,6.0
# From MPEC 2021-F20
60P/Tsuchinshan,e,3.5802,267.4404,216.9830,3.526180,0.1488495,0.53359614,235.2646,04/05.0/2023,2000,g 11.5,6.0
# From MPEC 2023-FK0
61P/Shajn-Schaldach,e,5.9995,162.9615,221.6408,3.689089,0.1390994,0.42376625,22.7087,04/05.0/2023,2000,g  6.0,10.0
# From MPC109147
62P/Tsuchinshan,e,4.7364,68.6760,47.3153,3.370162,0.1593045,0.62488189,317.9391,04/05.0/2023,2000,g  8.0,10.0
# From MPC 84320
63P/Wild,e,19.7169,358.0081,168.9533,5.615531,0.0740658,0.64994014,271.8242,04/05.0/2023,2000,g 10.5,6.0
# From MPEC 2023-A50
64P/Swift-Gehrels,e,8.9491,299.8965,97.1747,4.452554,0.1049036,0.68869322,169.0278,04/05.0/2023,2000,g  9.5,12.0
# From MPEC 2023-G31
65P/Gunn,e,9.1758,61.9840,213.8598,3.889347,0.1284958,0.24837119,256.6768,04/05.0/2023,2000,g  5.0,6.0
# From MPEC 2021-F20
66P/duToit,e,18.6387,21.7781,257.4873,6.070521,0.0658969,0.78573870,117.5197,04/05.0/2023,2000,g 15.0,4.0
# From MPEC 2023-FK0
67P/Churyumov-Gerasimenko,e,3.8719,36.3291,22.1530,3.457427,0.1533114,0.64990207,79.5438,04/05.0/2023,2000,g 11.0,4.0
# From MPEC 2022-H04
68P/Klemola,e,11.1110,175.0486,153.2532,4.959562,0.0892358,0.63708749,110.9297,04/05.0/2023,2000,g 12.7,4.0
# From MPEC 2023-A50
69P/Taylor,e,22.0481,104.8053,343.3970,3.884100,0.1287563,0.41396539,190.3318,04/05.0/2023,2000,g  9.5,12.0
# From MPEC 2023-G31
70P/Kojima,e,6.5982,119.2538,1.7931,3.677368,0.1397650,0.45397297,72.3860,04/05.0/2023,2000,g 11.0,6.0
# From MPEC 2023-F81
71P/Clark,e,9.4381,59.3934,209.0584,3.138184,0.1772909,0.49371600,12.8041,04/05.0/2023,2000,g  9.8,6.0
# From MPC 89011
72P/Denning-Fujikawa,e,10.9487,26.7013,346.7341,4.306934,0.1102686,0.81865588,352.0737,04/05.0/2023,2000,g 17.5,10.0
# From MPEC 2023-G31
73P/Schwassmann-Wachmann,e,11.2313,69.5887,199.5106,3.093699,0.1811285,0.68558607,40.2420,04/05.0/2023,2000,g 11.5,6.0
# From MPC106348
73P-T/Schwassmann-Wachmann,e,11.2332,69.5916,199.4912,3.095177,0.1809989,0.68577998,39.9571,04/05.0/2023,2000,g 11.5,6.0
# From MPEC 2022-P18
73P-U/Schwassmann-Wachmann,e,11.0728,70.6569,199.8917,2.877136,0.2019591,0.66630444,45.0545,04/05.0/2023,2000,g 19.0,4.0
# From MPEC 2022-X67
73P-V/Schwassmann-Wachmann,e,11.2472,69.4670,199.3873,3.147116,0.1765367,0.69049954,39.3637,04/05.0/2023,2000,g 19.0,4.0
# From MPEC 2022-R15
73P-W/Schwassmann-Wachmann,e,11.6063,67.2886,198.7683,4.596407,0.1000176,0.78235935,22.2537,04/05.0/2023,2000,g 18.2,4.0
# From MPEC 2023-A50
73P-X/Schwassmann-Wachmann,e,11.2629,69.4602,199.4054,3.126369,0.1782969,0.68844883,39.6967,04/05.0/2023,2000,g 17.5,4.0
# From MPEC 2022-R15
73P-Y/Schwassmann-Wachmann,e,11.2016,69.7463,199.4834,3.035476,0.1863648,0.68019172,41.6858,04/05.0/2023,2000,g 17.4,4.0
# From MPEC 2022-P18
73P-BU/Schwassmann-Wachmann,e,11.0728,70.6569,199.8917,2.877136,0.2019591,0.66630444,45.0545,04/05.0/2023,2000,g 19.0,4.0
# From MPEC 2022-X67
73P-BV/Schwassmann-Wachmann,e,11.2472,69.4670,199.3873,3.147116,0.1765367,0.69049954,39.3637,04/05.0/2023,2000,g 19.0,4.0
# From MPEC 2022-R15
73P-BW/Schwassmann-Wachmann,e,11.6063,67.2886,198.7683,4.596407,0.1000176,0.78235935,22.2537,04/05.0/2023,2000,g 18.2,4.0
# From MPEC 2023-A50
73P-BX/Schwassmann-Wachmann,e,11.2629,69.4602,199.4054,3.126369,0.1782969,0.68844883,39.6967,04/05.0/2023,2000,g 17.5,4.0
# From MPEC 2022-R15
73P-BY/Schwassmann-Wachmann,e,11.2016,69.7463,199.4834,3.035476,0.1863648,0.68019172,41.6858,04/05.0/2023,2000,g 17.4,4.0
# From MPEC 2023-A50
74P/Smirnova-Chernykh,e,6.3986,54.2591,139.8909,4.669659,0.0976734,0.07485434,178.2974,04/05.0/2023,2000,g  5.0,6.0
# From MPEC 2022-K19
76P/West-Kohoutek-Ikemura,e,30.4855,84.1045,359.9358,3.470351,0.1524558,0.53883039,191.5551,04/05.0/2023,2000,g  8.0,12.0
# From MPEC 2023-G31
77P/Longmore,e,24.3188,14.7680,196.7307,3.623914,0.1428687,0.35186992,0.2687,04/05.0/2023,2000,g  7.0,8.0
# From MPEC 2021-O56
78P/Gehrels,e,6.2573,210.5191,192.6530,3.736750,0.1364467,0.46297077,199.4284,04/05.0/2023,2000,g  5.5,8.0
# From MPC 94675
79P/du Toit-Hartley,e,3.1487,280.5196,281.7877,2.943771,0.1951408,0.61917360,325.1939,04/05.0/2023,2000,g 16.0,4.0
# From MPEC 2023-G31
80P/Peters-Hartley,e,29.9235,259.7964,339.2397,4.023007,0.1221456,0.59847311,14.3107,04/05.0/2023,2000,g  9.0,8.0
# From MPEC 2023-G31
81P/Wild,e,3.2364,136.0983,41.6232,3.454439,0.1535104,0.53728634,16.9459,04/05.0/2023,2000,g  7.0,6.0
# From MPC133426
82P/Gehrels,e,1.1292,239.3235,226.3466,4.133048,0.1173001,0.12211263,204.9495,04/05.0/2023,2000,g 15.0,4.0
# From MPEC 2020-FB5
84P/Giclas,e,7.5502,108.1315,281.6483,3.549949,0.1473570,0.51608585,152.4513,04/05.0/2023,2000,g  9.5,8.0
# From MPEC 2022-YB4
86P/Wild,e,15.4746,72.3124,179.6172,3.605536,0.1439625,0.37247997,60.5988,04/05.0/2023,2000,g 11.0,6.0
# From MPEC 2020-SI8
87P/Bus,e,4.7797,184.6727,42.7979,3.865610,0.1296812,0.35261060,125.9886,04/05.0/2023,2000,g  7.2,10.0
# From MPEC 2022-ED3
88P/Howell,e,4.3820,56.6690,235.9383,3.106352,0.1800230,0.56357230,165.7840,04/05.0/2023,2000,g 11.0,6.0
# From MPEC 2023-G31
